{
  "type": "FeatureCollection",
  "features": [
    {
      "type": "Feature",
      "properties": {
        "section_id": "PUNE-LNL",
        "track_id": "PUNE-LNL-UP",
        "track_name": "TRACK_1_UP (Main Line - To Mumbai)",
        "direction": "UP",
        "gauge": "1676mm Broad Gauge",
        "electrification": "25kV AC 50Hz OHE",
        "speed_limit": 110,
        "is_electrified": true
      },
      "geometry": {
        "type": "LineString",
        "coordinates": [
          [
            73.8744,
            18.5284
          ],
          [
            73.87305,
            18.5286
          ],
          [
            73.87035,
            18.529
          ],
          [
            73.869,
            18.5292
          ],
          [
            73.86725,
            18.529525
          ],
          [
            73.86375,
            18.530175
          ],
          [
            73.862,
            18.5305
          ],
          [
            73.8605,
            18.530675
          ],
          [
            73.8575,
            18.531025
          ],
          [
            73.856,
            18.5312
          ],
          [
            73.8548,
            18.5314
          ],
          [
            73.8524,
            18.5318
          ],
          [
            73.8512,
            18.532
          ],
          [
            73.84965,
            18.53325
          ],
          [
            73.84655,
            18.53575
          ],
          [
            73.845,
            18.537
          ],
          [
            73.8435,
            18.53875
          ],
          [
            73.8405,
            18.54225
          ],
          [
            73.839,
            18.544
          ],
          [
            73.83775,
            18.546
          ],
          [
            73.83525,
            18.55
          ],
          [
            73.834,
            18.552
          ],
          [
            73.83275,
            18.554175
          ],
          [
            73.83025,
            18.558525
          ],
          [
            73.829,
            18.5607
          ],
          [
            73.82825,
            18.562275
          ],
          [
            73.82675,
            18.565425
          ],
          [
            73.826,
            18.567
          ],
          [
            73.8255,
            18.56875
          ],
          [
            73.8245,
            18.57225
          ],
          [
            73.824,
            18.574
          ],
          [
            73.82355,
            18.5756
          ],
          [
            73.82265,
            18.5788
          ],
          [
            73.8222,
            18.5804
          ],
          [
            73.821775,
            18.5823
          ],
          [
            73.820925,
            18.5861
          ],
          [
            73.8205,
            18.588
          ],
          [
            73.820125,
            18.58975
          ],
          [
            73.819375,
            18.59325
          ],
          [
            73.819,
            18.595
          ],
          [
            73.81875,
            18.596625
          ],
          [
            73.81825,
            18.599875
          ],
          [
            73.818,
            18.6015
          ],
          [
            73.817,
            18.603125
          ],
          [
            73.815,
            18.606375
          ],
          [
            73.814,
            18.608
          ],
          [
            73.8125,
            18.6095
          ],
          [
            73.8095,
            18.6125
          ],
          [
            73.808,
            18.614
          ],
          [
            73.80675,
            18.61525
          ],
          [
            73.80425,
            18.61775
          ],
          [
            73.803,
            18.619
          ],
          [
            73.802175,
            18.619875
          ],
          [
            73.800525,
            18.621625
          ],
          [
            73.7997,
            18.6225
          ],
          [
            73.798275,
            18.623625
          ],
          [
            73.795425,
            18.625875
          ],
          [
            73.794,
            18.627
          ],
          [
            73.79275,
            18.628125
          ],
          [
            73.79025,
            18.630375
          ],
          [
            73.789,
            18.6315
          ],
          [
            73.788,
            18.632625
          ],
          [
            73.786,
            18.634875
          ],
          [
            73.785,
            18.636
          ],
          [
            73.78325,
            18.63725
          ],
          [
            73.77975,
            18.63975
          ],
          [
            73.778,
            18.641
          ],
          [
            73.7765,
            18.642125
          ],
          [
            73.7735,
            18.644375
          ],
          [
            73.772,
            18.6455
          ],
          [
            73.7705,
            18.646625
          ],
          [
            73.7675,
            18.648875
          ],
          [
            73.766,
            18.65
          ],
          [
            73.76325,
            18.65175
          ],
          [
            73.75775,
            18.65525
          ],
          [
            73.755,
            18.657
          ],
          [
            73.75225,
            18.659
          ],
          [
            73.74675,
            18.663
          ],
          [
            73.744,
            18.665
          ],
          [
            73.7415,
            18.667
          ],
          [
            73.7365,
            18.671
          ],
          [
            73.734,
            18.673
          ],
          [
            73.73175,
            18.67475
          ],
          [
            73.72725,
            18.67825
          ],
          [
            73.725,
            18.68
          ],
          [
            73.72325,
            18.68175
          ],
          [
            73.71975,
            18.68525
          ],
          [
            73.718,
            18.687
          ],
          [
            73.716,
            18.68875
          ],
          [
            73.712,
            18.69225
          ],
          [
            73.71,
            18.694
          ],
          [
            73.708,
            18.69575
          ],
          [
            73.704,
            18.69925
          ],
          [
            73.702,
            18.701
          ],
          [
            73.7,
            18.70325
          ],
          [
            73.696,
            18.70775
          ],
          [
            73.694,
            18.71
          ],
          [
            73.692,
            18.71225
          ],
          [
            73.688,
            18.71675
          ],
          [
            73.686,
            18.719
          ],
          [
            73.684,
            18.72125
          ],
          [
            73.68,
            18.72575
          ],
          [
            73.678,
            18.728
          ],
          [
            73.67475,
            18.72925
          ],
          [
            73.66825,
            18.73175
          ],
          [
            73.665,
            18.733
          ],
          [
            73.66175,
            18.73425
          ],
          [
            73.65525,
            18.73675
          ],
          [
            73.652,
            18.738
          ],
          [
            73.6495,
            18.739
          ],
          [
            73.6445,
            18.741
          ],
          [
            73.642,
            18.742
          ],
          [
            73.64025,
            18.74275
          ],
          [
            73.63675,
            18.74425
          ],
          [
            73.635,
            18.745
          ],
          [
            73.63,
            18.746
          ],
          [
            73.62,
            18.748
          ],
          [
            73.615,
            18.749
          ],
          [
            73.61,
            18.75
          ],
          [
            73.6,
            18.752
          ],
          [
            73.595,
            18.753
          ],
          [
            73.59,
            18.75375
          ],
          [
            73.58,
            18.75525
          ],
          [
            73.575,
            18.756
          ],
          [
            73.57075,
            18.7565
          ],
          [
            73.56225,
            18.7575
          ],
          [
            73.558,
            18.758
          ],
          [
            73.55225,
            18.75775
          ],
          [
            73.54075,
            18.75725
          ],
          [
            73.535,
            18.757
          ],
          [
            73.52925,
            18.7565
          ],
          [
            73.51775,
            18.7555
          ],
          [
            73.512,
            18.755
          ],
          [
            73.5065,
            18.7545
          ],
          [
            73.4955,
            18.7535
          ],
          [
            73.49,
            18.753
          ],
          [
            73.4855,
            18.75275
          ],
          [
            73.4765,
            18.75225
          ],
          [
            73.472,
            18.752
          ],
          [
            73.46775,
            18.752125
          ],
          [
            73.45925,
            18.752375
          ],
          [
            73.455,
            18.7525
          ],
          [
            73.45075,
            18.752625
          ],
          [
            73.44225,
            18.752875
          ],
          [
            73.438,
            18.753
          ],
          [
            73.434,
            18.753125
          ],
          [
            73.426,
            18.753375
          ],
          [
            73.422,
            18.7535
          ],
          [
            73.4183,
            18.753625
          ],
          [
            73.4109,
            18.753875
          ],
          [
            73.4072,
            18.754
          ]
        ]
      }
    },
    {
      "type": "Feature",
      "properties": {
        "section_id": "PUNE-LNL",
        "track_id": "PUNE-LNL-DN",
        "track_name": "TRACK_2_DN (Main Line - To Pune)",
        "direction": "DN",
        "gauge": "1676mm Broad Gauge",
        "electrification": "25kV AC 50Hz OHE",
        "speed_limit": 110,
        "is_electrified": true
      },
      "geometry": {
        "type": "LineString",
        "coordinates": [
          [
            73.874374,
            18.528222
          ],
          [
            73.873024,
            18.528422
          ],
          [
            73.870324,
            18.528822
          ],
          [
            73.868967,
            18.529023
          ],
          [
            73.867217,
            18.529348
          ],
          [
            73.863717,
            18.529998
          ],
          [
            73.861979,
            18.530321
          ],
          [
            73.860479,
            18.530496
          ],
          [
            73.857479,
            18.530846
          ],
          [
            73.85597,
            18.531022
          ],
          [
            73.85477,
            18.531222
          ],
          [
            73.85237,
            18.531622
          ],
          [
            73.851087,
            18.53186
          ],
          [
            73.849537,
            18.53311
          ],
          [
            73.846437,
            18.53561
          ],
          [
            73.844863,
            18.536883
          ],
          [
            73.843363,
            18.538633
          ],
          [
            73.840363,
            18.542133
          ],
          [
            73.838847,
            18.543905
          ],
          [
            73.837597,
            18.545905
          ],
          [
            73.835097,
            18.549905
          ],
          [
            73.833844,
            18.55191
          ],
          [
            73.832594,
            18.554085
          ],
          [
            73.830094,
            18.558435
          ],
          [
            73.828837,
            18.560623
          ],
          [
            73.828087,
            18.562198
          ],
          [
            73.826587,
            18.565348
          ],
          [
            73.825827,
            18.566951
          ],
          [
            73.825327,
            18.568701
          ],
          [
            73.824327,
            18.572201
          ],
          [
            73.823827,
            18.573951
          ],
          [
            73.823377,
            18.575551
          ],
          [
            73.822477,
            18.578751
          ],
          [
            73.822024,
            18.580361
          ],
          [
            73.821599,
            18.582261
          ],
          [
            73.820749,
            18.586061
          ],
          [
            73.820324,
            18.587962
          ],
          [
            73.819949,
            18.589712
          ],
          [
            73.819199,
            18.593212
          ],
          [
            73.818822,
            18.594973
          ],
          [
            73.818572,
            18.596598
          ],
          [
            73.818072,
            18.599848
          ],
          [
            73.817847,
            18.601406
          ],
          [
            73.816847,
            18.603031
          ],
          [
            73.814847,
            18.606281
          ],
          [
            73.813873,
            18.607873
          ],
          [
            73.812373,
            18.609373
          ],
          [
            73.809373,
            18.612373
          ],
          [
            73.807873,
            18.613873
          ],
          [
            73.806623,
            18.615123
          ],
          [
            73.804123,
            18.617623
          ],
          [
            73.802869,
            18.618877
          ],
          [
            73.802044,
            18.619752
          ],
          [
            73.800394,
            18.621502
          ],
          [
            73.799588,
            18.622359
          ],
          [
            73.798163,
            18.623484
          ],
          [
            73.795313,
            18.625734
          ],
          [
            73.79388,
            18.626866
          ],
          [
            73.79263,
            18.627991
          ],
          [
            73.79013,
            18.630241
          ],
          [
            73.788865,
            18.63138
          ],
          [
            73.787865,
            18.632505
          ],
          [
            73.785865,
            18.634755
          ],
          [
            73.784895,
            18.635854
          ],
          [
            73.783145,
            18.637104
          ],
          [
            73.779645,
            18.639604
          ],
          [
            73.777892,
            18.640856
          ],
          [
            73.776392,
            18.641981
          ],
          [
            73.773392,
            18.644231
          ],
          [
            73.771892,
            18.645356
          ],
          [
            73.770392,
            18.646481
          ],
          [
            73.767392,
            18.648731
          ],
          [
            73.765903,
            18.649848
          ],
          [
            73.763153,
            18.651598
          ],
          [
            73.757653,
            18.655098
          ],
          [
            73.754894,
            18.656854
          ],
          [
            73.752144,
            18.658854
          ],
          [
            73.746644,
            18.662854
          ],
          [
            73.743888,
            18.664859
          ],
          [
            73.741388,
            18.666859
          ],
          [
            73.736388,
            18.670859
          ],
          [
            73.733889,
            18.672858
          ],
          [
            73.731639,
            18.674608
          ],
          [
            73.727139,
            18.678108
          ],
          [
            73.724873,
            18.679873
          ],
          [
            73.723123,
            18.681623
          ],
          [
            73.719623,
            18.685123
          ],
          [
            73.717881,
            18.686865
          ],
          [
            73.715881,
            18.688615
          ],
          [
            73.711881,
            18.692115
          ],
          [
            73.709881,
            18.693865
          ],
          [
            73.707881,
            18.695615
          ],
          [
            73.703881,
            18.699115
          ],
          [
            73.701865,
            18.70088
          ],
          [
            73.699865,
            18.70313
          ],
          [
            73.695865,
            18.70763
          ],
          [
            73.693865,
            18.70988
          ],
          [
            73.691865,
            18.71213
          ],
          [
            73.687865,
            18.71663
          ],
          [
            73.685865,
            18.71888
          ],
          [
            73.683865,
            18.72113
          ],
          [
            73.679865,
            18.72563
          ],
          [
            73.677935,
            18.727832
          ],
          [
            73.674685,
            18.729082
          ],
          [
            73.668185,
            18.731582
          ],
          [
            73.664935,
            18.732832
          ],
          [
            73.661685,
            18.734082
          ],
          [
            73.655185,
            18.736582
          ],
          [
            73.651933,
            18.737833
          ],
          [
            73.649433,
            18.738833
          ],
          [
            73.644433,
            18.740833
          ],
          [
            73.641929,
            18.741835
          ],
          [
            73.640179,
            18.742585
          ],
          [
            73.636679,
            18.744085
          ],
          [
            73.634965,
            18.744823
          ],
          [
            73.629965,
            18.745823
          ],
          [
            73.619965,
            18.747823
          ],
          [
            73.614965,
            18.748823
          ],
          [
            73.609965,
            18.749823
          ],
          [
            73.599965,
            18.751823
          ],
          [
            73.594973,
            18.752822
          ],
          [
            73.589973,
            18.753572
          ],
          [
            73.579973,
            18.755072
          ],
          [
            73.574979,
            18.755821
          ],
          [
            73.570729,
            18.756321
          ],
          [
            73.562229,
            18.757321
          ],
          [
            73.558008,
            18.75782
          ],
          [
            73.552258,
            18.75757
          ],
          [
            73.540758,
            18.75707
          ],
          [
            73.535016,
            18.756821
          ],
          [
            73.529266,
            18.756321
          ],
          [
            73.517766,
            18.755321
          ],
          [
            73.512016,
            18.754821
          ],
          [
            73.506516,
            18.754321
          ],
          [
            73.495516,
            18.753321
          ],
          [
            73.49001,
            18.75282
          ],
          [
            73.48551,
            18.75257
          ],
          [
            73.47651,
            18.75207
          ],
          [
            73.471995,
            18.75182
          ],
          [
            73.467745,
            18.751945
          ],
          [
            73.459245,
            18.752195
          ],
          [
            73.454995,
            18.75232
          ],
          [
            73.450745,
            18.752445
          ],
          [
            73.442245,
            18.752695
          ],
          [
            73.437994,
            18.75282
          ],
          [
            73.433994,
            18.752945
          ],
          [
            73.425994,
            18.753195
          ],
          [
            73.421994,
            18.75332
          ],
          [
            73.418294,
            18.753445
          ],
          [
            73.410894,
            18.753695
          ],
          [
            73.407194,
            18.75382
          ]
        ]
      }
    },
    {
      "type": "Feature",
      "properties": {
        "section_id": "PUNE-LNL",
        "track_id": "PUNE-LNL-LOOP",
        "track_name": "PUNE-LNL Goods & Overtaking Loop Lines",
        "direction": "BOTH",
        "gauge": "1676mm Broad Gauge",
        "electrification": "25kV AC 50Hz OHE",
        "speed_limit": 50,
        "is_electrified": true
      },
      "geometry": {
        "type": "LineString",
        "coordinates": [
          [
            73.789262,
            18.631733
          ],
          [
            73.788262,
            18.632858
          ],
          [
            73.786262,
            18.635108
          ],
          [
            73.785203,
            18.636285
          ],
          [
            73.783453,
            18.637535
          ],
          [
            73.779953,
            18.640035
          ],
          [
            73.77821,
            18.64128
          ],
          [
            73.77671,
            18.642405
          ],
          [
            73.77371,
            18.644655
          ],
          [
            73.77221,
            18.64578
          ],
          [
            73.77071,
            18.646905
          ],
          [
            73.76771,
            18.649155
          ],
          [
            73.766188,
            18.650295
          ],
          [
            73.763438,
            18.652045
          ],
          [
            73.688262,
            18.716983
          ],
          [
            73.686262,
            18.719233
          ],
          [
            73.684262,
            18.721483
          ],
          [
            73.680262,
            18.725983
          ],
          [
            73.678126,
            18.728327
          ],
          [
            73.674876,
            18.729577
          ]
        ]
      }
    },
    {
      "type": "Feature",
      "properties": {
        "code": "PUNE",
        "name": "Pune Junction",
        "km": 191.0,
        "category": "Junction",
        "platforms": 6
      },
      "geometry": {
        "type": "Point",
        "coordinates": [
          73.8744,
          18.5284
        ]
      }
    },
    {
      "type": "Feature",
      "properties": {
        "code": "SVJR",
        "name": "Shivajinagar",
        "km": 193.5,
        "category": "Hub",
        "platforms": 3
      },
      "geometry": {
        "type": "Point",
        "coordinates": [
          73.8512,
          18.532
        ]
      }
    },
    {
      "type": "Feature",
      "properties": {
        "code": "KK",
        "name": "Khadki",
        "km": 197.2,
        "category": "Way Station",
        "platforms": 2
      },
      "geometry": {
        "type": "Point",
        "coordinates": [
          73.829,
          18.5607
        ]
      }
    },
    {
      "type": "Feature",
      "properties": {
        "code": "DAPD",
        "name": "Dapodi",
        "km": 201.0,
        "category": "Way Station",
        "platforms": 2
      },
      "geometry": {
        "type": "Point",
        "coordinates": [
          73.8222,
          18.5804
        ]
      }
    },
    {
      "type": "Feature",
      "properties": {
        "code": "KSWD",
        "name": "Kasarwadi",
        "km": 204.1,
        "category": "Way Station",
        "platforms": 2
      },
      "geometry": {
        "type": "Point",
        "coordinates": [
          73.818,
          18.6015
        ]
      }
    },
    {
      "type": "Feature",
      "properties": {
        "code": "PMP",
        "name": "Pimpri",
        "km": 207.3,
        "category": "Way Station",
        "platforms": 2
      },
      "geometry": {
        "type": "Point",
        "coordinates": [
          73.7997,
          18.6225
        ]
      }
    },
    {
      "type": "Feature",
      "properties": {
        "code": "CWD",
        "name": "Chinchwad",
        "km": 210.6,
        "category": "Hub",
        "platforms": 3
      },
      "geometry": {
        "type": "Point",
        "coordinates": [
          73.785,
          18.636
        ]
      }
    },
    {
      "type": "Feature",
      "properties": {
        "code": "AKRD",
        "name": "Akurdi",
        "km": 214.2,
        "category": "Way Station",
        "platforms": 2
      },
      "geometry": {
        "type": "Point",
        "coordinates": [
          73.766,
          18.65
        ]
      }
    },
    {
      "type": "Feature",
      "properties": {
        "code": "DEHR",
        "name": "Dehu Road",
        "km": 219.8,
        "category": "Way Station",
        "platforms": 2
      },
      "geometry": {
        "type": "Point",
        "coordinates": [
          73.725,
          18.68
        ]
      }
    },
    {
      "type": "Feature",
      "properties": {
        "code": "BGWI",
        "name": "Begdewadi",
        "km": 223.1,
        "category": "Way Station",
        "platforms": 2
      },
      "geometry": {
        "type": "Point",
        "coordinates": [
          73.702,
          18.701
        ]
      }
    },
    {
      "type": "Feature",
      "properties": {
        "code": "TGN",
        "name": "Talegaon",
        "km": 227.4,
        "category": "Hub",
        "platforms": 2
      },
      "geometry": {
        "type": "Point",
        "coordinates": [
          73.678,
          18.728
        ]
      }
    },
    {
      "type": "Feature",
      "properties": {
        "code": "VDN",
        "name": "Vadgaon",
        "km": 233.2,
        "category": "Way Station",
        "platforms": 2
      },
      "geometry": {
        "type": "Point",
        "coordinates": [
          73.635,
          18.745
        ]
      }
    },
    {
      "type": "Feature",
      "properties": {
        "code": "KMST",
        "name": "Kamshet",
        "km": 240.0,
        "category": "Way Station",
        "platforms": 2
      },
      "geometry": {
        "type": "Point",
        "coordinates": [
          73.558,
          18.758
        ]
      }
    },
    {
      "type": "Feature",
      "properties": {
        "code": "MVL",
        "name": "Malavli",
        "km": 248.5,
        "category": "Way Station",
        "platforms": 2
      },
      "geometry": {
        "type": "Point",
        "coordinates": [
          73.472,
          18.752
        ]
      }
    },
    {
      "type": "Feature",
      "properties": {
        "code": "LNL",
        "name": "Lonavala",
        "km": 254.8,
        "category": "Junction",
        "platforms": 3
      },
      "geometry": {
        "type": "Point",
        "coordinates": [
          73.4072,
          18.754
        ]
      }
    },
    {
      "type": "Feature",
      "properties": {
        "type": "milestone",
        "km": 195,
        "label": "Km 195"
      },
      "geometry": {
        "type": "Point",
        "coordinates": [
          73.856,
          18.5312
        ]
      }
    },
    {
      "type": "Feature",
      "properties": {
        "type": "milestone",
        "km": 200,
        "label": "Km 200"
      },
      "geometry": {
        "type": "Point",
        "coordinates": [
          73.834,
          18.552
        ]
      }
    },
    {
      "type": "Feature",
      "properties": {
        "type": "milestone",
        "km": 205,
        "label": "Km 205"
      },
      "geometry": {
        "type": "Point",
        "coordinates": [
          73.82265,
          18.5788
        ]
      }
    },
    {
      "type": "Feature",
      "properties": {
        "type": "milestone",
        "km": 210,
        "label": "Km 210"
      },
      "geometry": {
        "type": "Point",
        "coordinates": [
          73.815,
          18.606375
        ]
      }
    },
    {
      "type": "Feature",
      "properties": {
        "type": "milestone",
        "km": 215,
        "label": "Km 215"
      },
      "geometry": {
        "type": "Point",
        "coordinates": [
          73.795425,
          18.625875
        ]
      }
    },
    {
      "type": "Feature",
      "properties": {
        "type": "milestone",
        "km": 220,
        "label": "Km 220"
      },
      "geometry": {
        "type": "Point",
        "coordinates": [
          73.7735,
          18.644375
        ]
      }
    },
    {
      "type": "Feature",
      "properties": {
        "type": "milestone",
        "km": 225,
        "label": "Km 225"
      },
      "geometry": {
        "type": "Point",
        "coordinates": [
          73.7415,
          18.667
        ]
      }
    },
    {
      "type": "Feature",
      "properties": {
        "type": "milestone",
        "km": 230,
        "label": "Km 230"
      },
      "geometry": {
        "type": "Point",
        "coordinates": [
          73.708,
          18.69575
        ]
      }
    },
    {
      "type": "Feature",
      "properties": {
        "type": "milestone",
        "km": 235,
        "label": "Km 235"
      },
      "geometry": {
        "type": "Point",
        "coordinates": [
          73.67475,
          18.72925
        ]
      }
    },
    {
      "type": "Feature",
      "properties": {
        "type": "milestone",
        "km": 240,
        "label": "Km 240"
      },
      "geometry": {
        "type": "Point",
        "coordinates": [
          73.63,
          18.746
        ]
      }
    },
    {
      "type": "Feature",
      "properties": {
        "type": "milestone",
        "km": 245,
        "label": "Km 245"
      },
      "geometry": {
        "type": "Point",
        "coordinates": [
          73.558,
          18.758
        ]
      }
    },
    {
      "type": "Feature",
      "properties": {
        "type": "milestone",
        "km": 250,
        "label": "Km 250"
      },
      "geometry": {
        "type": "Point",
        "coordinates": [
          73.472,
          18.752
        ]
      }
    }
  ]
}